0 COSMOS 735
1 07824U 75045D   13280.96311524 -.00000030  00000-0 -94368-4 0  8467
2 07824 074.0212 012.3416 0007883 015.8466 100.7049 12.49303447749897
0 COSMOS 735
1 07824U 75045D   13283.18198089 -.00000028  00000-0 -79184-4 0  8470
2 07824 074.0213 009.3951 0007927 012.4077 000.1462 12.49303459750176
0 COSMOS 735
1 07824U 75045D   13285.52951578 -.00000001  00000-0  97724-4 0  8481
2 07824 074.0212 006.2777 0007962 008.7967 118.2573 12.49303209750461
0 COSMOS 735
1 07824U 75045D   13287.77368244  .00000010  00000-0  17347-3 0  8494
2 07824 074.0209 003.2978 0008006 005.4113 131.3970 12.49303092750742
0 COSMOS 735
1 07824U 75045D   13290.15068153  .00000011  00000-0  17949-3 0  8507
2 07824 074.0203 000.1413 0008048 001.7194 022.0562 12.49303326751047
0 COSMOS 735
1 07824U 75045D   13292.49115800 -.00000009  00000-0  47187-4 0  8515
2 07824 074.0199 357.0331 0008088 358.1763 108.3629 12.49303596751332
0 COSMOS 735
1 07824U 75045D   13294.49294326 -.00000022  00000-0 -40735-4 0  8527
2 07824 074.0198 354.3744 0008127 355.1764 111.3744 12.49303685751589
